{
  "norad_id": 57136,
  "name": "STARLINK-6112",
  "history": [
    {
      "epoch": "2026-03-28T21:06:07.746048Z",
      "apogee_km": 486.29077118270106,
      "perigee_km": 484.84802009833675,
      "latitude_deg": 3.360452886877239e-05,
      "longitude_deg": 11.679090142128684,
      "height_km": 484.9504582645275,
      "semi_major_axis_km": 6863.706395640518,
      "eccentricity": 0.0001051,
      "inclination_deg": 43.0017,
      "raan_deg": 154.5047,
      "arg_perigee_deg": 303.2489,
      "mean_anomaly_deg": 56.8262,
      "mean_motion_rev_day": 15.26738704
    }
  ]
}